{"fetched_at":"2026-07-14T06:34:25.665Z","source":"https://celestrak.org/NORAD/elements/gp.php?GROUP=qianfan&FORMAT=JSON","constellation":"qianfan","records":[{"OBJECT_NAME":"QIANFAN-1","OBJECT_ID":"2024-140A","EPOCH":"2026-07-13T18:32:25.096416","CLASSIFICATION_TYPE":"U","MEAN_MOTION":13.51019954,"ECCENTRICITY":0.001572,"INCLINATION":88.9733,"RA_OF_ASC_NODE":277.1741,"ARG_OF_PERICENTER":325.0175,"MEAN_ANOMALY":34.9942,"EPHEMERIS_TYPE":0,"NORAD_CAT_ID":60379,"ELEMENT_SET_NO":999,"REV_AT_EPOCH":9611,"BSTAR":0.00011438,"MEAN_MOTION_DOT":8.6e-7,"MEAN_MOTION_DDOT":0},{"OBJECT_NAME":"QIANFAN-2","OBJECT_ID":"2024-140B","EPOCH":"2026-07-13T21:00:38.968128","CLASSIFICATION_TYPE":"U","MEAN_MOTION":13.51015772,"ECCENTRICITY":0.0010428,"INCLINATION":88.972,"RA_OF_ASC_NODE":276.9738,"ARG_OF_PERICENTER":294.0428,"MEAN_ANOMALY":65.9632,"EPHEMERIS_TYPE":0,"NORAD_CAT_ID":60380,"ELEMENT_SET_NO":999,"REV_AT_EPOCH":9618,"BSTAR":0.00011726,"MEAN_MOTION_DOT":8.8e-7,"MEAN_MOTION_DDOT":0},{"OBJECT_NAME":"QIANFAN-3","OBJECT_ID":"2024-140C","EPOCH":"2026-07-13T19:25:47.923680","CLASSIFICATION_TYPE":"U","MEAN_MOTION":13.51016818,"ECCENTRICITY":0.0011738,"INCLINATION":88.9713,"RA_OF_ASC_NODE":277.097,"ARG_OF_PERICENTER":309.051,"MEAN_ANOMALY":50.9596,"EPHEMERIS_TYPE":0,"NORAD_CAT_ID":60381,"ELEMENT_SET_NO":999,"REV_AT_EPOCH":9608,"BSTAR":0.0001444,"MEAN_MOTION_DOT":0.00000105,"MEAN_MOTION_DDOT":0},{"OBJECT_NAME":"QIANFAN-4","OBJECT_ID":"2024-140D","EPOCH":"2026-07-13T18:50:08.467008","CLASSIFICATION_TYPE":"U","MEAN_MOTION":13.51019793,"ECCENTRICITY":0.0010687,"INCLINATION":88.9738,"RA_OF_ASC_NODE":277.051,"ARG_OF_PERICENTER":297.4864,"MEAN_ANOMALY":62.5201,"EPHEMERIS_TYPE":0,"NORAD_CAT_ID":60382,"ELEMENT_SET_NO":999,"REV_AT_EPOCH":9620,"BSTAR":0.00014622,"MEAN_MOTION_DOT":0.00000106,"MEAN_MOTION_DDOT":0},{"OBJECT_NAME":"QIANFAN-5","OBJECT_ID":"2024-140E","EPOCH":"2026-07-13T20:01:19.441920","CLASSIFICATION_TYPE":"U","MEAN_MOTION":13.51010462,"ECCENTRICITY":0.001326,"INCLINATION":88.9712,"RA_OF_ASC_NODE":277.1191,"ARG_OF_PERICENTER":321.5482,"MEAN_ANOMALY":38.4724,"EPHEMERIS_TYPE":0,"NORAD_CAT_ID":60383,"ELEMENT_SET_NO":999,"REV_AT_EPOCH":9607,"BSTAR":0.00011203,"MEAN_MOTION_DOT":8.4e-7,"MEAN_MOTION_DDOT":0},{"OBJECT_NAME":"QIANFAN-6","OBJECT_ID":"2024-140F","EPOCH":"2026-07-13T20:30:52.966944","CLASSIFICATION_TYPE":"U","MEAN_MOTION":13.51018667,"ECCENTRICITY":0.0010904,"INCLINATION":88.9739,"RA_OF_ASC_NODE":276.921,"ARG_OF_PERICENTER":304.3791,"MEAN_ANOMALY":55.6328,"EPHEMERIS_TYPE":0,"NORAD_CAT_ID":60384,"ELEMENT_SET_NO":999,"REV_AT_EPOCH":9627,"BSTAR":0.00013352,"MEAN_MOTION_DOT":9.8e-7,"MEAN_MOTION_DDOT":0},{"OBJECT_NAME":"QIANFAN-7","OBJECT_ID":"2024-140G","EPOCH":"2026-07-13T20:52:36.708384","CLASSIFICATION_TYPE":"U","MEAN_MOTION":14.27863807,"ECCENTRICITY":0.0017169,"INCLINATION":88.9768,"RA_OF_ASC_NODE":268.64,"ARG_OF_PERICENTER":65.4161,"MEAN_ANOMALY":294.882,"EPHEMERIS_TYPE":0,"NORAD_CAT_ID":60385,"ELEMENT_SET_NO":999,"REV_AT_EPOCH":10080,"BSTAR":0.0001181,"MEAN_MOTION_DOT":0.00000307,"MEAN_MOTION_DDOT":0},{"OBJECT_NAME":"QIANFAN-8","OBJECT_ID":"2024-140H","EPOCH":"2026-07-13T20:42:48.121344","CLASSIFICATION_TYPE":"U","MEAN_MOTION":13.51015006,"ECCENTRICITY":0.0014393,"INCLINATION":88.974,"RA_OF_ASC_NODE":277.1604,"ARG_OF_PERICENTER":305.8713,"MEAN_ANOMALY":54.1101,"EPHEMERIS_TYPE":0,"NORAD_CAT_ID":60386,"ELEMENT_SET_NO":999,"REV_AT_EPOCH":9612,"BSTAR":0.00011434,"MEAN_MOTION_DOT":8.6e-7,"MEAN_MOTION_DDOT":0},{"OBJECT_NAME":"QIANFAN-9","OBJECT_ID":"2024-140J","EPOCH":"2026-07-13T20:07:07.532832","CLASSIFICATION_TYPE":"U","MEAN_MOTION":13.51020683,"ECCENTRICITY":0.0014064,"INCLINATION":88.9738,"RA_OF_ASC_NODE":277.234,"ARG_OF_PERICENTER":305.7005,"MEAN_ANOMALY":54.2837,"EPHEMERIS_TYPE":0,"NORAD_CAT_ID":60387,"ELEMENT_SET_NO":999,"REV_AT_EPOCH":9610,"BSTAR":0.00012444,"MEAN_MOTION_DOT":9.2e-7,"MEAN_MOTION_DDOT":0},{"OBJECT_NAME":"QIANFAN-10","OBJECT_ID":"2024-140K","EPOCH":"2026-07-13T20:13:03.748800","CLASSIFICATION_TYPE":"U","MEAN_MOTION":13.5102182,"ECCENTRICITY":0.0012319,"INCLINATION":88.9749,"RA_OF_ASC_NODE":276.6029,"ARG_OF_PERICENTER":279.2945,"MEAN_ANOMALY":80.6813,"EPHEMERIS_TYPE":0,"NORAD_CAT_ID":60388,"ELEMENT_SET_NO":999,"REV_AT_EPOCH":9623,"BSTAR":0.00012285,"MEAN_MOTION_DOT":9.1e-7,"MEAN_MOTION_DDOT":0},{"OBJECT_NAME":"QIANFAN-11","OBJECT_ID":"2024-140L","EPOCH":"2026-07-13T21:06:27.110016","CLASSIFICATION_TYPE":"U","MEAN_MOTION":13.51015749,"ECCENTRICITY":0.0012103,"INCLINATION":88.9674,"RA_OF_ASC_NODE":277.0259,"ARG_OF_PERICENTER":305.9006,"MEAN_ANOMALY":54.1021,"EPHEMERIS_TYPE":0,"NORAD_CAT_ID":60389,"ELEMENT_SET_NO":999,"REV_AT_EPOCH":9589,"BSTAR":0.00011968,"MEAN_MOTION_DOT":8.9e-7,"MEAN_MOTION_DDOT":0},{"OBJECT_NAME":"QIANFAN-12","OBJECT_ID":"2024-140M","EPOCH":"2026-07-13T19:49:31.552896","CLASSIFICATION_TYPE":"U","MEAN_MOTION":13.51018017,"ECCENTRICITY":0.0011104,"INCLINATION":88.9717,"RA_OF_ASC_NODE":277.1677,"ARG_OF_PERICENTER":316.2261,"MEAN_ANOMALY":43.8009,"EPHEMERIS_TYPE":0,"NORAD_CAT_ID":60390,"ELEMENT_SET_NO":999,"REV_AT_EPOCH":9601,"BSTAR":0.00012944,"MEAN_MOTION_DOT":9.6e-7,"MEAN_MOTION_DDOT":0},{"OBJECT_NAME":"QIANFAN-13","OBJECT_ID":"2024-140N","EPOCH":"2026-07-13T19:07:59.565216","CLASSIFICATION_TYPE":"U","MEAN_MOTION":13.51018035,"ECCENTRICITY":0.0010996,"INCLINATION":88.9729,"RA_OF_ASC_NODE":277.2964,"ARG_OF_PERICENTER":319.6036,"MEAN_ANOMALY":40.4297,"EPHEMERIS_TYPE":0,"NORAD_CAT_ID":60391,"ELEMENT_SET_NO":999,"REV_AT_EPOCH":9603,"BSTAR":0.00012033,"MEAN_MOTION_DOT":9e-7,"MEAN_MOTION_DDOT":0},{"OBJECT_NAME":"QIANFAN-14","OBJECT_ID":"2024-140P","EPOCH":"2026-07-13T19:43:38.349696","CLASSIFICATION_TYPE":"U","MEAN_MOTION":13.51011583,"ECCENTRICITY":0.0014659,"INCLINATION":88.9708,"RA_OF_ASC_NODE":277.1464,"ARG_OF_PERICENTER":317.6588,"MEAN_ANOMALY":42.3431,"EPHEMERIS_TYPE":0,"NORAD_CAT_ID":60392,"ELEMENT_SET_NO":999,"REV_AT_EPOCH":9604,"BSTAR":0.00012837,"MEAN_MOTION_DOT":9.5e-7,"MEAN_MOTION_DDOT":0},{"OBJECT_NAME":"QIANFAN-15","OBJECT_ID":"2024-140Q","EPOCH":"2026-07-13T19:55:23.702016","CLASSIFICATION_TYPE":"U","MEAN_MOTION":13.51012047,"ECCENTRICITY":0.0010174,"INCLINATION":88.9732,"RA_OF_ASC_NODE":277.1527,"ARG_OF_PERICENTER":303.2158,"MEAN_ANOMALY":56.8018,"EPHEMERIS_TYPE":0,"NORAD_CAT_ID":60393,"ELEMENT_SET_NO":999,"REV_AT_EPOCH":9603,"BSTAR":0.00010251,"MEAN_MOTION_DOT":7.8e-7,"MEAN_MOTION_DDOT":0},{"OBJECT_NAME":"QIANFAN-16","OBJECT_ID":"2024-140R","EPOCH":"2026-07-13T19:37:40.853280","CLASSIFICATION_TYPE":"U","MEAN_MOTION":13.51020004,"ECCENTRICITY":0.0012732,"INCLINATION":88.9735,"RA_OF_ASC_NODE":277.2801,"ARG_OF_PERICENTER":323.0366,"MEAN_ANOMALY":36.9907,"EPHEMERIS_TYPE":0,"NORAD_CAT_ID":60394,"ELEMENT_SET_NO":999,"REV_AT_EPOCH":9594,"BSTAR":0.00014642,"MEAN_MOTION_DOT":0.00000107,"MEAN_MOTION_DDOT":0}]}
