QIANFAN-1               
1 60379U 24140A   26194.77251269  .00000086  00000+0  11438-3 0  9990
2 60379  88.9733 277.1741 0015720 325.0175  34.9942 13.51019954 96118
QIANFAN-2               
1 60380U 24140B   26194.87545102  .00000088  00000+0  11726-3 0  9997
2 60380  88.9720 276.9738 0010428 294.0428  65.9632 13.51015772 96186
QIANFAN-3               
1 60381U 24140C   26194.80958245  .00000105  00000+0  14440-3 0  9993
2 60381  88.9713 277.0970 0011738 309.0510  50.9596 13.51016818 96087
QIANFAN-4               
1 60382U 24140D   26194.78482022  .00000106  00000+0  14622-3 0  9999
2 60382  88.9738 277.0510 0010687 297.4864  62.5201 13.51019793 96200
QIANFAN-5               
1 60383U 24140E   26194.83425280  .00000084  00000+0  11203-3 0  9996
2 60383  88.9712 277.1191 0013260 321.5482  38.4724 13.51010462 96075
QIANFAN-6               
1 60384U 24140F   26194.85477971  .00000098  00000+0  13352-3 0  9995
2 60384  88.9739 276.9210 0010904 304.3791  55.6328 13.51018667 96276
QIANFAN-7               
1 60385U 24140G   26194.86986931  .00000307  00000+0  11810-3 0  9998
2 60385  88.9768 268.6400 0017169  65.4161 294.8820 14.27863807100801
QIANFAN-8               
1 60386U 24140H   26194.86305696  .00000086  00000+0  11434-3 0  9998
2 60386  88.9740 277.1604 0014393 305.8713  54.1101 13.51015006 96127
QIANFAN-9               
1 60387U 24140J   26194.83828163  .00000092  00000+0  12444-3 0  9994
2 60387  88.9738 277.2340 0014064 305.7005  54.2837 13.51020683 96103
QIANFAN-10              
1 60388U 24140K   26194.84240450  .00000091  00000+0  12285-3 0  9995
2 60388  88.9749 276.6029 0012319 279.2945  80.6813 13.51021820 96237
QIANFAN-11              
1 60389U 24140L   26194.87948044  .00000089  00000+0  11968-3 0  9997
2 60389  88.9674 277.0259 0012103 305.9006  54.1021 13.51015749 95892
QIANFAN-12              
1 60390U 24140M   26194.82605964  .00000096  00000+0  12944-3 0  9998
2 60390  88.9717 277.1677 0011104 316.2261  43.8009 13.51018017 96012
QIANFAN-13              
1 60391U 24140N   26194.79721719  .00000090  00000+0  12033-3 0  9995
2 60391  88.9729 277.2964 0010996 319.6036  40.4297 13.51018035 96035
QIANFAN-14              
1 60392U 24140P   26194.82197164  .00000095  00000+0  12837-3 0  9998
2 60392  88.9708 277.1464 0014659 317.6588  42.3431 13.51011583 96040
QIANFAN-15              
1 60393U 24140Q   26194.83013544  .00000078  00000+0  10251-3 0  9998
2 60393  88.9732 277.1527 0010174 303.2158  56.8018 13.51012047 96036
QIANFAN-16              
1 60394U 24140R   26194.81783395  .00000107  00000+0  14642-3 0  9996
2 60394  88.9735 277.2801 0012732 323.0366  36.9907 13.51020004 95946
